ADRAS-J                 
1 58992U 24034A   24279.49927229  .00015382  00000+0  13583-2 0  9994
2 58992  98.2259 257.7151 0044739  47.9359 312.5653 14.95691805 34349
